start=new Date('2022-11-26T00:00:00.000Z').valueOf();
sats=[{"MEAN_MOTION":"15.08850161","MEAN_ANOMALY":"328.9924","NORAD_CAT_ID":"51465","INCLINATION":"53.2167","PERIAPSIS":"537.620","ECCENTRICITY":"0.00030270","DECAY_DATE":null,"GP_ID":"218821606","APOAPSIS":"541.808","SEMIMAJOR_AXIS":"6917.849","FILE":"3670141","MEAN_ELEMENT_THEORY":"SGP4","RA_OF_ASC_NODE":"265.5746","BSTAR":"0.00028328000000","COUNTRY_CODE":"US","TLE_LINE1":"1 51465U 22010K   22329.81625671  .00004224  00000-0  28328-3 0  9998","TLE_LINE2":"2 51465  53.2167 265.5746 0003027  31.1247 328.9924 15.08850161 46183","ELEMENT_SET_NO":"999","OBJECT_TYPE":"PAYLOAD","EPOCH":"2022-11-25T19:35:24.579744","SITE":"AFETR","EPHEMERIS_TYPE":"0","OBJECT_ID":"2022-010K","ARG_OF_PERICENTER":"31.1247","CLASSIFICATION_TYPE":"U","CENTER_NAME":"EARTH","TIME_SYSTEM":"UTC","REV_AT_EPOCH":"4618","RCS_SIZE":"LARGE","REF_FRAME":"TEME","MEAN_MOTION_DDOT":"0.0000000000000","OBJECT_NAME":"STARLINK-3401","PERIOD":"95.437","MEAN_MOTION_DOT":"0.00004224","LAUNCH_DATE":"2022-02-03"},{"PERIAPSIS":"537.816","ECCENTRICITY":"0.00028260","GP_ID":"218763910","DECAY_DATE":null,"MEAN_MOTION":"15.08831683","MEAN_ANOMALY":"333.0335","NORAD_CAT_ID":"51467","INCLINATION":"53.2180","MEAN_ELEMENT_THEORY":"SGP4","FILE":"3669850","BSTAR":"0.00002796400000","RA_OF_ASC_NODE":"268.3313","COUNTRY_CODE":"US","TLE_LINE1":"1 51467U 22010M   22329.20169333  .00000156  00000-0  27964-4 0  9997","TLE_LINE2":"2 51467  53.2180 268.3313 0002826  27.0804 333.0335 15.08831683 45281","ELEMENT_SET_NO":"999","APOAPSIS":"541.726","SEMIMAJOR_AXIS":"6917.906","CENTER_NAME":"EARTH","EPOCH":"2022-11-25T04:50:26.303712","OBJECT_TYPE":"PAYLOAD","OBJECT_ID":"2022-010M","SITE":"AFETR","EPHEMERIS_TYPE":"0","CLASSIFICATION_TYPE":"U","ARG_OF_PERICENTER":"27.0804","REF_FRAME":"TEME","MEAN_MOTION_DDOT":"0.0000000000000","OBJECT_NAME":"STARLINK-3178","PERIOD":"95.438","MEAN_MOTION_DOT":"0.00000156","LAUNCH_DATE":"2022-02-03","TIME_SYSTEM":"UTC","REV_AT_EPOCH":"4528","RCS_SIZE":"LARGE"},{"REF_FRAME":"TEME","MEAN_MOTION_DDOT":"0.0000000000000","OBJECT_NAME":"STARLINK-3174","PERIOD":"95.437","MEAN_MOTION_DOT":"0.00001952","LAUNCH_DATE":"2022-02-03","TIME_SYSTEM":"UTC","REV_AT_EPOCH":"4533","RCS_SIZE":"LARGE","CENTER_NAME":"EARTH","OBJECT_TYPE":"PAYLOAD","EPOCH":"2022-11-25T13:03:16.439328","SITE":"AFETR","EPHEMERIS_TYPE":"0","OBJECT_ID":"2022-010N","ARG_OF_PERICENTER":"27.3394","CLASSIFICATION_TYPE":"U","FILE":"3670141","MEAN_ELEMENT_THEORY":"SGP4","BSTAR":"0.00014068000000","RA_OF_ASC_NODE":"266.7999","COUNTRY_CODE":"US","TLE_LINE2":"2 51468  53.2165 266.7999 0002697  27.3394 332.7739 15.08846499 45331","TLE_LINE1":"1 51468U 22010N   22329.54394027  .00001952  00000-0  14068-3 0  9990","ELEMENT_SET_NO":"999","APOAPSIS":"541.591","SEMIMAJOR_AXIS":"6917.861","PERIAPSIS":"537.860","ECCENTRICITY":"0.00026970","DECAY_DATE":null,"GP_ID":"218822598","MEAN_MOTION":"15.08846499","MEAN_ANOMALY":"332.7739","NORAD_CAT_ID":"51468","INCLINATION":"53.2165"},{"PERIAPSIS":"537.620","ECCENTRICITY":"0.00030630","DECAY_DATE":null,"GP_ID":"218820857","MEAN_MOTION":"15.08842033","MEAN_ANOMALY":"327.4234","NORAD_CAT_ID":"51469","INCLINATION":"53.2189","FILE":"3670141","MEAN_ELEMENT_THEORY":"SGP4","BSTAR":"0.00015728000000","RA_OF_ASC_NODE":"265.5343","COUNTRY_CODE":"US","TLE_LINE2":"2 51469  53.2189 265.5343 0003063  32.6947 327.4234 15.08842033 45688","ELEMENT_SET_NO":"999","TLE_LINE1":"1 51469U 22010P   22329.82361793  .00002216  00000-0  15728-3 0  9994","APOAPSIS":"541.858","SEMIMAJOR_AXIS":"6917.874","CENTER_NAME":"EARTH","OBJECT_TYPE":"PAYLOAD","EPOCH":"2022-11-25T19:46:00.589152","SITE":"AFETR","EPHEMERIS_TYPE":"0","OBJECT_ID":"2022-010P","ARG_OF_PERICENTER":"32.6947","CLASSIFICATION_TYPE":"U","REF_FRAME":"TEME","MEAN_MOTION_DDOT":"0.0000000000000","OBJECT_NAME":"STARLINK-3182","PERIOD":"95.437","LAUNCH_DATE":"2022-02-03","MEAN_MOTION_DOT":"0.00002216","TIME_SYSTEM":"UTC","REV_AT_EPOCH":"4568","RCS_SIZE":"LARGE"},{"RCS_SIZE":"LARGE","REV_AT_EPOCH":"4571","TIME_SYSTEM":"UTC","LAUNCH_DATE":"2022-02-03","MEAN_MOTION_DOT":"0.00010954","PERIOD":"95.324","OBJECT_NAME":"STARLINK-3165","MEAN_MOTION_DDOT":"0.0000000000000","REF_FRAME":"TEME","CLASSIFICATION_TYPE":"U","ARG_OF_PERICENTER":"106.2295","OBJECT_ID":"2022-010R","EPHEMERIS_TYPE":"0","SITE":"AFETR","EPOCH":"2022-11-25T12:53:42.996480","OBJECT_TYPE":"PAYLOAD","CENTER_NAME":"EARTH","SEMIMAJOR_AXIS":"6912.412","APOAPSIS":"537.826","TLE_LINE2":"2 51471  53.2172 261.5073 0005134 106.2295 253.9263 15.10630851 45719","TLE_LINE1":"1 51471U 22010R   22329.53730320  .00010954  00000-0  67158-3 0  9993","ELEMENT_SET_NO":"999","COUNTRY_CODE":"US","RA_OF_ASC_NODE":"261.5073","BSTAR":"0.00067158000000","FILE":"3669850","MEAN_ELEMENT_THEORY":"SGP4","NORAD_CAT_ID":"51471","INCLINATION":"53.2172","MEAN_ANOMALY":"253.9263","MEAN_MOTION":"15.10630851","GP_ID":"218763660","DECAY_DATE":null,"ECCENTRICITY":"0.00051340","PERIAPSIS":"530.728"},{"REF_FRAME":"TEME","OBJECT_NAME":"STARLINK-3415","MEAN_MOTION_DDOT":"0.0000000000000","PERIOD":"95.438","LAUNCH_DATE":"2022-02-03","MEAN_MOTION_DOT":"0.00000878","TIME_SYSTEM":"UTC","REV_AT_EPOCH":"4568","RCS_SIZE":"LARGE","CENTER_NAME":"EARTH","OBJECT_TYPE":"PAYLOAD","EPOCH":"2022-11-25T19:19:30.984672","SITE":"AFETR","EPHEMERIS_TYPE":"0","OBJECT_ID":"2022-010S","ARG_OF_PERICENTER":"32.5443","CLASSIFICATION_TYPE":"U","MEAN_ELEMENT_THEORY":"SGP4","FILE":"3670141","BSTAR":"0.00007329400000","RA_OF_ASC_NODE":"265.6252","COUNTRY_CODE":"US","TLE_LINE1":"1 51472U 22010S   22329.80521973  .00000878  00000-0  73294-4 0  9999","TLE_LINE2":"2 51472  53.2177 265.6252 0003633  32.5443 327.5773 15.08838924 45685","ELEMENT_SET_NO":"999","APOAPSIS":"542.262","SEMIMAJOR_AXIS":"6917.884","PERIAPSIS":"537.235","ECCENTRICITY":"0.00036330","DECAY_DATE":null,"GP_ID":"218821851","MEAN_MOTION":"15.08838924","MEAN_ANOMALY":"327.5773","NORAD_CAT_ID":"51472","INCLINATION":"53.2177"},{"BSTAR":"0.00013329000000","RA_OF_ASC_NODE":"317.6891","MEAN_ELEMENT_THEORY":"SGP4","FILE":"3670098","TLE_LINE2":"2 51714  53.2174 317.6891 0002011  46.9148 313.2012 15.08835981 43279","ELEMENT_SET_NO":"999","TLE_LINE1":"1 51714U 22016A   22329.34430076  .00001834  00000-0  13329-3 0  9991","COUNTRY_CODE":"US","SEMIMAJOR_AXIS":"6917.893","APOAPSIS":"541.149","ECCENTRICITY":"0.00020110","PERIAPSIS":"538.366","GP_ID":"218797661","DECAY_DATE":null,"MEAN_MOTION":"15.08835981","NORAD_CAT_ID":"51714","INCLINATION":"53.2174","MEAN_ANOMALY":"313.2012","MEAN_MOTION_DDOT":"0.0000000000000","OBJECT_NAME":"STARLINK-3528","REF_FRAME":"TEME","MEAN_MOTION_DOT":"0.00001834","LAUNCH_DATE":"2022-02-21","PERIOD":"95.438","REV_AT_EPOCH":"4327","TIME_SYSTEM":"UTC","RCS_SIZE":"LARGE","CENTER_NAME":"EARTH","EPOCH":"2022-11-25T08:15:47.585664","OBJECT_TYPE":"PAYLOAD","CLASSIFICATION_TYPE":"U","ARG_OF_PERICENTER":"46.9148","OBJECT_ID":"2022-016A","SITE":"AFETR","EPHEMERIS_TYPE":"0"},{"MEAN_MOTION":"15.08838523","NORAD_CAT_ID":"51715","INCLINATION":"53.2162","MEAN_ANOMALY":"327.8651","ECCENTRICITY":"0.00025790","PERIAPSIS":"537.966","GP_ID":"218738561","DECAY_DATE":null,"SEMIMAJOR_AXIS":"6917.885","APOAPSIS":"541.534","BSTAR":"0.00008029000000","RA_OF_ASC_NODE":"317.1496","FILE":"3669838","MEAN_ELEMENT_THEORY":"SGP4","TLE_LINE2":"2 51715  53.2162 317.1496 0002579  32.2499 327.8651 15.08838523 43364","TLE_LINE1":"1 51715U 22016B   22329.46574072  .00000990  00000-0  80290-4 0  9994","ELEMENT_SET_NO":"999","COUNTRY_CODE":"US","EPOCH":"2022-11-25T11:10:39.998208","OBJECT_TYPE":"PAYLOAD","CLASSIFICATION_TYPE":"U","ARG_OF_PERICENTER":"32.2499","OBJECT_ID":"2022-016B","SITE":"AFETR","EPHEMERIS_TYPE":"0","CENTER_NAME":"EARTH","REV_AT_EPOCH":"4336","TIME_SYSTEM":"UTC","RCS_SIZE":"LARGE","MEAN_MOTION_DDOT":"0.0000000000000","OBJECT_NAME":"STARLINK-3533","REF_FRAME":"TEME","LAUNCH_DATE":"2022-02-21","MEAN_MOTION_DOT":"0.00000990","PERIOD":"95.438"},{"APOAPSIS":"541.606","SEMIMAJOR_AXIS":"6917.862","MEAN_ELEMENT_THEORY":"SGP4","FILE":"3670098","BSTAR":"0.00006286400000","RA_OF_ASC_NODE":"317.1140","COUNTRY_CODE":"US","TLE_LINE1":"1 51716U 22016C   22329.47309297  .00000712  00000-0  62864-4 0  9990","TLE_LINE2":"2 51716  53.2161 317.1140 0002717  32.1563 327.9594 15.08846074 43294","ELEMENT_SET_NO":"999","MEAN_MOTION":"15.08846074","MEAN_ANOMALY":"327.9594","NORAD_CAT_ID":"51716","INCLINATION":"53.2161","PERIAPSIS":"537.847","ECCENTRICITY":"0.00027170","DECAY_DATE":null,"GP_ID":"218797463","TIME_SYSTEM":"UTC","REV_AT_EPOCH":"4329","RCS_SIZE":"LARGE","REF_FRAME":"TEME","OBJECT_NAME":"STARLINK-3543","MEAN_MOTION_DDOT":"0.0000000000000","PERIOD":"95.437","MEAN_MOTION_DOT":"0.00000712","LAUNCH_DATE":"2022-02-21","OBJECT_TYPE":"PAYLOAD","EPOCH":"2022-11-25T11:21:15.232608","SITE":"AFETR","EPHEMERIS_TYPE":"0","OBJECT_ID":"2022-016C","ARG_OF_PERICENTER":"32.1563","CLASSIFICATION_TYPE":"U","CENTER_NAME":"EARTH"},{"COUNTRY_CODE":"US","TLE_LINE2":"2 51717  53.2171 316.2356 0002758  32.2427 327.8733 15.08843632 42267","ELEMENT_SET_NO":"999","TLE_LINE1":"1 51717U 22016D   22329.66813690  .00002405  00000-0  16913-3 0  9993","MEAN_ELEMENT_THEORY":"SGP4","FILE":"3670141","BSTAR":"0.00016913000000","RA_OF_ASC_NODE":"316.2356","APOAPSIS":"541.642","SEMIMAJOR_AXIS":"6917.869","DECAY_DATE":null,"GP_ID":"218820867","PERIAPSIS":"537.826","ECCENTRICITY":"0.00027580","MEAN_ANOMALY":"327.8733","NORAD_CAT_ID":"51717","INCLINATION":"53.2171","MEAN_MOTION":"15.08843632","PERIOD":"95.437","LAUNCH_DATE":"2022-02-21","MEAN_MOTION_DOT":"0.00002405","REF_FRAME":"TEME","OBJECT_NAME":"STARLINK-3445","MEAN_MOTION_DDOT":"0.0000000000000","RCS_SIZE":"LARGE","TIME_SYSTEM":"UTC","REV_AT_EPOCH":"4226","CENTER_NAME":"EARTH","SITE":"AFETR","EPHEMERIS_TYPE":"0","OBJECT_ID":"2022-016D","ARG_OF_PERICENTER":"32.2427","CLASSIFICATION_TYPE":"U","OBJECT_TYPE":"PAYLOAD","EPOCH":"2022-11-25T16:02:07.028160"}];
